      2.10          N: GNSS NAV DATA                        RINEX VERSION / TYPE
fic2rin                                 05/21/2023 00:18:03 PGM / RUN BY / DATE
                                                            END OF HEADER
19 23  5 20 12  0  0.0  .319398008287D-03  .511590769747D-11  .000000000000D+00
     .500000000000D+02  .520937500000D+02  .443697053192D-08  .284828468994D+01
     .279396772385D-05  .941418006551D-02  .387430191040D-06  .515362612534D+04
     .561600000000D+06  .875443220139D-07  .155845237326D+01  .240281224251D-06
     .973116254975D+00  .379156250000D+03  .229923185854D+01 -.821677083292D-08
    -.785747015231D-11  .100000000000D+01  .226200000000D+04  .000000000000D+00
     .240000000000D+01  .000000000000D+00 -.153668224812D-07  .500000000000D+02
     .554400000000D+06  .400000000000D+01
18 23  5 20 12  0  0.0 -.273981131613D-03 -.156887836056D-10  .000000000000D+00
     .152000000000D+03 -.135875000000D+03  .401052419729D-08 -.130679745142D+01
    -.705011188984D-05  .319523399230D-02  .490806996822D-05  .515367787743D+04
     .561600000000D+06 -.726431608200D-07  .251817583412D+01 -.689178705215D-07
     .973885577261D+00  .292468750000D+03  .312914731691D+01 -.795747431789D-08
    -.361800784741D-09  .100000000000D+01  .226200000000D+04  .000000000000D+00
     .240000000000D+01  .000000000000D+00 -.838190317154D-08  .664000000000D+03
     .554400000000D+06  .400000000000D+01
14 23  5 20 12  0  0.0  .631459988654D-04  .127329258248D-10  .000000000000D+00
     .870000000000D+02  .111312500000D+03  .457376194412D-08 -.284757776550D+01
     .580772757530D-05  .314886891283D-02  .102706253529D-04  .515368532944D+04
     .561600000000D+06 -.521540641785D-07  .435994904435D+00 -.186264514923D-07
     .949278532987D+00  .176968750000D+03 -.302937526962D+01 -.788568561332D-08
    -.778603860547D-10  .100000000000D+01  .226200000000D+04  .000000000000D+00
     .240000000000D+01  .000000000000D+00 -.791624188423D-08  .343000000000D+03
     .554400000000D+06  .400000000000D+01
28 23  5 20 12  0  0.0  .790930353105D-04  .295585778076D-11  .000000000000D+00
     .215000000000D+03 -.903125000000D+01  .475626954629D-08  .261681817072D+01
    -.681728124619D-06  .713626970537D-03  .787898898125D-05  .515367508698D+04
     .561600000000D+06  .409781932831D-07 -.677109002662D+00 -.502914190292D-07
     .961456711571D+00  .229593750000D+03  .171954894287D+01 -.790961518151D-08
    -.508592613495D-09  .100000000000D+01  .226200000000D+04  .000000000000D+00
     .240000000000D+01  .000000000000D+00 -.977888703346D-08  .471000000000D+03
     .554400000000D+06  .400000000000D+01
23 23  5 20 12  0  0.0  .257533974946D-04  .318323145621D-11  .000000000000D+00
     .209000000000D+03 -.655000000000D+02  .368122476636D-08 -.235378086847D+01
    -.334531068802D-05  .315691856667D-02  .118035823107D-04  .515366165924D+04
     .561600000000D+06 -.372529029846D-07 -.276581822037D+01  .409781932831D-07
     .974078480564D+00  .159562500000D+03 -.309764605175D+01 -.744316718065D-08
     .519307345521D-09  .100000000000D+01  .226200000000D+04  .000000000000D+00
     .240000000000D+01  .000000000000D+00 -.838190317154D-08  .977000000000D+03
     .554400000000D+06  .400000000000D+01
22 23  5 20 12  0  0.0  .484421383590D-03  .636646291241D-11  .000000000000D+00
     .158000000000D+03  .871875000000D+01  .490234705958D-08  .530538909681D+00
     .331550836563D-06  .143503143918D-01  .555627048016D-05  .515361969376D+04
     .561600000000D+06 -.206753611565D-06 -.160666435561D+01 -.260770320892D-07
     .962142681173D+00  .273281250000D+03 -.180370326296D+01 -.829605984991D-08
     .283940398686D-09  .100000000000D+01  .226200000000D+04  .000000000000D+00
     .340000000000D+01  .630000000000D+02 -.838190317154D-08  .158000000000D+03
     .554400000000D+06  .400000000000D+01
22 23  5 20 11 59 44.0  .484422314912D-03  .625277607469D-11  .000000000000D+00
     .200000000000D+01  .871875000000D+01  .490270421731D-08  .528205047712D+00
     .331550836563D-06  .143503103172D-01  .555627048016D-05  .515361969566D+04
     .561584000000D+06 -.206753611565D-06 -.160666422980D+01 -.260770320892D-07
     .962142675322D+00  .273281250000D+03 -.180370326149D+01 -.829641700764D-08
     .283940398686D-09  .100000000000D+01  .226200000000D+04  .000000000000D+00
     .240000000000D+01  .630000000000D+02 -.838190317154D-08  .200000000000D+01
     .555450000000D+06  .400000000000D+01
11 23  5 20 12 44 32.0 -.203755218536D-03 -.140971678775D-10  .000000000000D+00
     .172000000000D+03 -.122062500000D+03  .429910764652D-08  .524002784808D+00
    -.636279582977D-05  .824343529530D-03  .446289777756D-05  .515375205421D+04
     .564272000000D+06  .149011611938D-07  .255020842674D+01  .167638063431D-07
     .965435360132D+00  .295281250000D+03 -.284931652264D+01 -.812355266429D-08
    -.356086260993D-09  .100000000000D+01  .226200000000D+04  .000000000000D+00
     .240000000000D+01  .000000000000D+00 -.884756445885D-08  .172000000000D+03
     .557100000000D+06  .400000000000D+01
29 23  5 20 11 59 44.0 -.600083265454D-03 -.136424205266D-11  .000000000000D+00
     .000000000000D+00  .510312500000D+02  .438946855327D-08  .821572699881D+00
     .238791108131D-05  .253583525773D-02  .264495611191D-06  .515376848793D+04
     .561584000000D+06  .186264514923D-07  .152795634641D+01 -.782310962677D-07
     .976321569929D+00  .380250000000D+03  .238930534121D+01 -.831141763248D-08
    -.185722021782D-10  .100000000000D+01  .226200000000D+04  .000000000000D+00
     .240000000000D+01  .000000000000D+00 -.102445483208D-07  .000000000000D+00
     .558630000000D+06  .400000000000D+01
16 23  5 20 11 59 44.0 -.499373767525D-03  .341060513165D-11  .000000000000D+00
     .000000000000D+00  .128687500000D+03  .431517974456D-08  .161706725823D+01
     .671483576298D-05  .133187110769D-01  .104848295450D-04  .515360838699D+04
     .561584000000D+06 -.335276126862D-06  .492786291281D+00  .931322574615D-07
     .965602059647D+00  .183406250000D+03  .788930482967D+00 -.791247244338D-08
    -.914323799542D-10  .100000000000D+01  .226200000000D+04  .000000000000D+00
     .240000000000D+01  .000000000000D+00 -.102445483208D-07  .000000000000D+00
     .559200000000D+06  .400000000000D+01
29 23  5 20 13 59 44.0 -.600093044341D-03 -.136424205266D-11  .000000000000D+00
     .100000000000D+01  .568125000000D+02  .446482883519D-08  .187141198903D+01
     .305846333504D-05  .253573770169D-02  .221654772758D-06  .515376977730D+04
     .568784000000D+06  .800937414169D-07  .152789653793D+01 -.670552253723D-07
     .976321477766D+00  .378500000000D+03  .238958826518D+01 -.830641742420D-08
    -.428589281035D-11  .100000000000D+01  .226200000000D+04  .000000000000D+00
     .240000000000D+01  .000000000000D+00 -.102445483208D-07  .100000000000D+01
     .561600000000D+06  .400000000000D+01
16 23  5 20 13 59 44.0 -.499349553138D-03  .341060513165D-11  .000000000000D+00
     .100000000000D+01  .135625000000D+03  .414124392800D-08  .266726153323D+01
     .682100653648D-05  .133177142125D-01  .979937613010D-05  .515360989952D+04
     .568784000000D+06 -.521540641785D-07  .492730200076D+00 -.208616256714D-06
     .965603500622D+00  .192781250000D+03  .788955713915D+00 -.752924219459D-08
    -.392873507616D-11  .100000000000D+01  .226200000000D+04  .000000000000D+00
     .240000000000D+01  .000000000000D+00 -.102445483208D-07  .100000000000D+01
     .561600000000D+06  .400000000000D+01
